CCSDS_OMM_VERS = 2.0
CREATION_DATE  = 
ORIGINATOR     = 

OBJECT_NAME    = SL-14 R/B
OBJECT_ID      = 1986-046B
CENTER_NAME    = EARTH
REF_FRAME      = TEME
TIME_SYSTEM    = UTC
MEAN_ELEMENT_THEORY = SGP/SGP4

EPOCH          = 2025-12-24T03:58:34.262976
MEAN_MOTION    = 14.85496509
ECCENTRICITY   = .00244815
INCLINATION    = 82.4816
RA_OF_ASC_NODE = 151.5232
ARG_OF_PERICENTER = 116.1527
MEAN_ANOMALY   = 244.2211

EPHEMERIS_TYPE = 0
CLASSIFICATION_TYPE = U
NORAD_CAT_ID   = 16792
ELEMENT_SET_NO = 999
REV_AT_EPOCH   = 11519
BSTAR          = .60007034E-4
MEAN_MOTION_DOT = .545E-5
MEAN_MOTION_DDOT = 0

CCSDS_OMM_VERS = 2.0
CREATION_DATE  = 
ORIGINATOR     = 

OBJECT_NAME    = SL-14 R/B
OBJECT_ID      = 1986-055B
CENTER_NAME    = EARTH
REF_FRAME      = TEME
TIME_SYSTEM    = UTC
MEAN_ELEMENT_THEORY = SGP/SGP4

EPOCH          = 2025-12-24T07:39:33.601824
MEAN_MOTION    = 14.85541304
ECCENTRICITY   = .00179548
INCLINATION    = 82.5194
RA_OF_ASC_NODE = 197.4919
ARG_OF_PERICENTER = 218.2000
MEAN_ANOMALY   = 314.6940

EPHEMERIS_TYPE = 0
CLASSIFICATION_TYPE = U
NORAD_CAT_ID   = 16882
ELEMENT_SET_NO = 999
REV_AT_EPOCH   = 10817
BSTAR          = .5011679E-4
MEAN_MOTION_DOT = .458E-5
MEAN_MOTION_DDOT = 0

CCSDS_OMM_VERS = 2.0
CREATION_DATE  = 
ORIGINATOR     = 

OBJECT_NAME    = AJISAI (EGS)
OBJECT_ID      = 1986-061A
CENTER_NAME    = EARTH
REF_FRAME      = TEME
TIME_SYSTEM    = UTC
MEAN_ELEMENT_THEORY = SGP/SGP4

EPOCH          = 2025-12-24T05:31:46.989408
MEAN_MOTION    = 12.44514410
ECCENTRICITY   = .00113195
INCLINATION    = 50.0112
RA_OF_ASC_NODE = 325.3844
ARG_OF_PERICENTER = 94.7388
MEAN_ANOMALY   = 350.1019

EPHEMERIS_TYPE = 0
CLASSIFICATION_TYPE = U
NORAD_CAT_ID   = 16908
ELEMENT_SET_NO = 999
REV_AT_EPOCH   = 45860
BSTAR          = .79344751E-4
MEAN_MOTION_DOT = -.86E-6
MEAN_MOTION_DDOT = 0

CCSDS_OMM_VERS = 2.0
CREATION_DATE  = 
ORIGINATOR     = 

OBJECT_NAME    = COSMOS 1812
OBJECT_ID      = 1987-003A
CENTER_NAME    = EARTH
REF_FRAME      = TEME
TIME_SYSTEM    = UTC
MEAN_ELEMENT_THEORY = SGP/SGP4

EPOCH          = 2025-12-23T06:24:14.198400
MEAN_MOTION    = 15.77617580
ECCENTRICITY   = .00065156
INCLINATION    = 82.4878
RA_OF_ASC_NODE = 280.6041
ARG_OF_PERICENTER = 71.8157
MEAN_ANOMALY   = 288.3817

EPHEMERIS_TYPE = 0
CLASSIFICATION_TYPE = U
NORAD_CAT_ID   = 17295
ELEMENT_SET_NO = 999
REV_AT_EPOCH   = 13231
BSTAR          = .64941812E-3
MEAN_MOTION_DOT = .109215E-2
MEAN_MOTION_DDOT = 0

CCSDS_OMM_VERS = 2.0
CREATION_DATE  = 
ORIGINATOR     = 

OBJECT_NAME    = SL-14 R/B
OBJECT_ID      = 1987-024B
CENTER_NAME    = EARTH
REF_FRAME      = TEME
TIME_SYSTEM    = UTC
MEAN_ELEMENT_THEORY = SGP/SGP4

EPOCH          = 2025-12-23T11:39:32.020992
MEAN_MOTION    = 14.86034499
ECCENTRICITY   = .00190152
INCLINATION    = 82.5277
RA_OF_ASC_NODE = 164.3593
ARG_OF_PERICENTER = 149.1516
MEAN_ANOMALY   = 211.0823

EPHEMERIS_TYPE = 0
CLASSIFICATION_TYPE = U
NORAD_CAT_ID   = 17567
ELEMENT_SET_NO = 999
REV_AT_EPOCH   = 7681
BSTAR          = .56438556E-4
MEAN_MOTION_DOT = .519E-5
MEAN_MOTION_DDOT = 0

CCSDS_OMM_VERS = 2.0
CREATION_DATE  = 
ORIGINATOR     = 

OBJECT_NAME    = COSMOS 1833
OBJECT_ID      = 1987-027A
CENTER_NAME    = EARTH
REF_FRAME      = TEME
TIME_SYSTEM    = UTC
MEAN_ELEMENT_THEORY = SGP/SGP4

EPOCH          = 2025-12-24T02:45:47.636352
MEAN_MOTION    = 14.13027443
ECCENTRICITY   = .00230322
INCLINATION    = 70.9158
RA_OF_ASC_NODE = 124.8643
ARG_OF_PERICENTER = 315.8417
MEAN_ANOMALY   = 44.0864

EPHEMERIS_TYPE = 0
CLASSIFICATION_TYPE = U
NORAD_CAT_ID   = 17589
ELEMENT_SET_NO = 999
REV_AT_EPOCH   = 99963
BSTAR          = .17222755E-3
MEAN_MOTION_DOT = .274E-5
MEAN_MOTION_DDOT = 0

CCSDS_OMM_VERS = 2.0
CREATION_DATE  = 
ORIGINATOR     = 

OBJECT_NAME    = SL-16 R/B
OBJECT_ID      = 1987-027B
CENTER_NAME    = EARTH
REF_FRAME      = TEME
TIME_SYSTEM    = UTC
MEAN_ELEMENT_THEORY = SGP/SGP4

EPOCH          = 2025-12-24T07:23:15.778464
MEAN_MOTION    = 14.17156571
ECCENTRICITY   = .00072164
INCLINATION    = 71.0038
RA_OF_ASC_NODE = 75.3428
ARG_OF_PERICENTER = 247.4623
MEAN_ANOMALY   = 112.5738

EPHEMERIS_TYPE = 0
CLASSIFICATION_TYPE = U
NORAD_CAT_ID   = 17590
ELEMENT_SET_NO = 999
REV_AT_EPOCH   = 466
BSTAR          = .23797487E-4
MEAN_MOTION_DOT = 0
MEAN_MOTION_DDOT = 0

CCSDS_OMM_VERS = 2.0
CREATION_DATE  = 
ORIGINATOR     = 

OBJECT_NAME    = SL-14 R/B
OBJECT_ID      = 1987-038B
CENTER_NAME    = EARTH
REF_FRAME      = TEME
TIME_SYSTEM    = UTC
MEAN_ELEMENT_THEORY = SGP/SGP4

EPOCH          = 2025-12-24T07:37:00.248736
MEAN_MOTION    = 14.85271453
ECCENTRICITY   = .00206279
INCLINATION    = 82.5009
RA_OF_ASC_NODE = 7.7951
ARG_OF_PERICENTER = 56.5498
MEAN_ANOMALY   = 303.7687

EPHEMERIS_TYPE = 0
CLASSIFICATION_TYPE = U
NORAD_CAT_ID   = 17912
ELEMENT_SET_NO = 999
REV_AT_EPOCH   = 6804
BSTAR          = .5345458E-4
MEAN_MOTION_DOT = .485E-5
MEAN_MOTION_DDOT = 0

CCSDS_OMM_VERS = 2.0
CREATION_DATE  = 
ORIGINATOR     = 

OBJECT_NAME    = COSMOS 1844
OBJECT_ID      = 1987-041A
CENTER_NAME    = EARTH
REF_FRAME      = TEME
TIME_SYSTEM    = UTC
MEAN_ELEMENT_THEORY = SGP/SGP4

EPOCH          = 2025-12-24T00:25:53.027904
MEAN_MOTION    = 14.14530534
ECCENTRICITY   = .002965
INCLINATION    = 70.8966
RA_OF_ASC_NODE = 193.7830
ARG_OF_PERICENTER = 139.2538
MEAN_ANOMALY   = 221.0809

EPHEMERIS_TYPE = 0
CLASSIFICATION_TYPE = U
NORAD_CAT_ID   = 17973
ELEMENT_SET_NO = 999
REV_AT_EPOCH   = 99288
BSTAR          = .18930195E-3
MEAN_MOTION_DOT = .317E-5
MEAN_MOTION_DDOT = 0

CCSDS_OMM_VERS = 2.0
CREATION_DATE  = 
ORIGINATOR     = 

OBJECT_NAME    = SL-14 R/B
OBJECT_ID      = 1987-055B
CENTER_NAME    = EARTH
REF_FRAME      = TEME
TIME_SYSTEM    = UTC
MEAN_ELEMENT_THEORY = SGP/SGP4

EPOCH          = 2025-12-24T05:45:22.976064
MEAN_MOTION    = 14.85532444
ECCENTRICITY   = .00191676
INCLINATION    = 82.4991
RA_OF_ASC_NODE = 60.1503
ARG_OF_PERICENTER = 262.3919
MEAN_ANOMALY   = 97.5121

EPHEMERIS_TYPE = 0
CLASSIFICATION_TYPE = U
NORAD_CAT_ID   = 18153
ELEMENT_SET_NO = 999
REV_AT_EPOCH   = 5873
BSTAR          = .54767249E-4
MEAN_MOTION_DOT = .498E-5
MEAN_MOTION_DDOT = 0

CCSDS_OMM_VERS = 2.0
CREATION_DATE  = 
ORIGINATOR     = 

OBJECT_NAME    = COSMOS 1867
OBJECT_ID      = 1987-060A
CENTER_NAME    = EARTH
REF_FRAME      = TEME
TIME_SYSTEM    = UTC
MEAN_ELEMENT_THEORY = SGP/SGP4

EPOCH          = 2025-12-23T20:25:00.543072
MEAN_MOTION    = 14.31487767
ECCENTRICITY   = .0013649
INCLINATION    = 65.0088
RA_OF_ASC_NODE = 159.0870
ARG_OF_PERICENTER = 272.1885
MEAN_ANOMALY   = 87.7636

EPHEMERIS_TYPE = 0
CLASSIFICATION_TYPE = U
NORAD_CAT_ID   = 18187
ELEMENT_SET_NO = 999
REV_AT_EPOCH   = 908
BSTAR          = .21111E-4
MEAN_MOTION_DOT = -.44E-6
MEAN_MOTION_DDOT = 0

CCSDS_OMM_VERS = 2.0
CREATION_DATE  = 
ORIGINATOR     = 

OBJECT_NAME    = SL-14 R/B
OBJECT_ID      = 1988-001B
CENTER_NAME    = EARTH
REF_FRAME      = TEME
TIME_SYSTEM    = UTC
MEAN_ELEMENT_THEORY = SGP/SGP4

EPOCH          = 2025-12-24T05:31:31.336320
MEAN_MOTION    = 14.85435297
ECCENTRICITY   = .00193398
INCLINATION    = 82.5135
RA_OF_ASC_NODE = 266.3405
ARG_OF_PERICENTER = 124.9072
MEAN_ANOMALY   = 235.3965

EPHEMERIS_TYPE = 0
CLASSIFICATION_TYPE = U
NORAD_CAT_ID   = 18749
ELEMENT_SET_NO = 999
REV_AT_EPOCH   = 3082
BSTAR          = .55993085E-4
MEAN_MOTION_DOT = .508E-5
MEAN_MOTION_DDOT = 0

