SL-14 R/B               
1 16792U 86046B   25358.16567434  .00000545  00000+0  60007-4 0  9998
2 16792  82.4816 151.5232 0024481 116.1527 244.2211 14.85496509115191
SL-14 R/B               
1 16882U 86055B   25358.31913891  .00000458  00000+0  50117-4 0  9991
2 16882  82.5194 197.4919 0017954 218.2000 314.6940 14.85541304108174
AJISAI (EGS)            
1 16908U 86061A   25358.23040497 -.00000086  00000+0  79345-4 0  9993
2 16908  50.0112 325.3844 0011319  94.7388 350.1019 12.44514410458606
COSMOS 1812             
1 17295U 87003A   25357.26683100  .00109215  00000+0  64942-3 0  9995
2 17295  82.4878 280.6041 0006515  71.8157 288.3817 15.77617580132314
SL-14 R/B               
1 17567U 87024B   25357.48578728  .00000519  00000+0  56439-4 0  9993
2 17567  82.5277 164.3593 0019015 149.1516 211.0823 14.86034499 76810
COSMOS 1833             
1 17589U 87027A   25358.11513468  .00000274  00000+0  17223-3 0  9996
2 17589  70.9158 124.8643 0023032 315.8417  44.0864 14.13027443999630
SL-16 R/B               
1 17590U 87027B   25358.30782151  .00000000  00000+0  23797-4 0  9997
2 17590  71.0038  75.3428 0007216 247.4623 112.5738 14.17156571  4667
SL-14 R/B               
1 17912U 87038B   25358.31736399  .00000485  00000+0  53455-4 0  9992
2 17912  82.5009   7.7951 0020627  56.5498 303.7687 14.85271453 68041
COSMOS 1844             
1 17973U 87041A   25358.01797486  .00000317  00000+0  18930-3 0  9996
2 17973  70.8966 193.7830 0029650 139.2538 221.0809 14.14530534992887
SL-14 R/B               
1 18153U 87055B   25358.23984926  .00000498  00000+0  54767-4 0  9992
2 18153  82.4991  60.1503 0019167 262.3919  97.5121 14.85532444 58732
COSMOS 1867             
1 18187U 87060A   25357.85070073 -.00000044  00000+0  21111-4 0  9996
2 18187  65.0088 159.0870 0013649 272.1885  87.7636 14.31487767  9082
SL-14 R/B               
1 18749U 88001B   25358.23022380  .00000508  00000+0  55993-4 0  9996
2 18749  82.5135 266.3405 0019339 124.9072 235.3965 14.85435297 30825
